GLOBALSTAR M063         
1 26081U 00008A   24282.44726291  .00000022  00000+0  15302-2 0  9994
2 26081  51.9964  54.5563 0004912 180.5233 221.8125 11.86161126127700
GLOBALSTAR M062         
1 26082U 00008B   24281.87166883  .00000005  00000+0  74048-3 0  9990
2 26082  51.9826 117.7565 0006216 298.3424  75.2158 12.43450007465234
GLOBALSTAR M060         
1 26083U 00008C   24282.61973376  .00000051  00000+0  14083-2 0  9990
2 26083  52.0041  39.9717 0002816 344.3425  29.3313 12.17646368121729
GLOBALSTAR M064         
1 26084U 00008D   24282.34861849 -.00000055  00000+0  40084-3 0  9998
2 26084  52.0013 156.6182 0001080 328.4439  31.6328 11.88523671137156
GLOBALSTAR M065         
1 31571U 07020A   24282.38502444  .00000022  00000+0  70172-3 0  9997
2 31571  51.9884 272.6596 0010208 106.9523  40.5912 12.61981179801610
GLOBALSTAR M069         
1 31573U 07020C   24282.60787213 -.00000025  00000+0  45288-3 0  9997
2 31573  51.9939 228.3115 0000836  16.4209 154.5805 12.58767091802765
GLOBALSTAR M072         
1 31574U 07020D   24282.50761568 -.00000039  00000+0  35876-3 0  9999
2 31574  52.0096 324.0159 0000301 159.2006 347.7982 12.62265762801193
GLOBALSTAR M071         
1 31576U 07020F   24282.30308980  .00000000  00000+0  57990-3 0  9992
2 31576  52.0056 233.8475 0000927 338.9330 180.9374 12.62259105463920
